troncon_unique_id,stop_depart_parent_id,stop_arrivee_parent_id,stop_depart_name,stop_arrivee_name,lat_depart_parent,lon_depart_parent,lat_arrivee_parent,lon_arrivee_parent
TU_BUS_000000,S5485,S5512,Grèzes,La Martelle,43.60970196,3.827725415,43.607352615,3.826643465
TU_BUS_000001,S5435,S5485,Croix des Rosiers,Grèzes,43.61077117,3.83069788,43.60970196,3.827725415
TU_BUS_000002,S5435,S5923,Croix des Rosiers,Mourèze,43.61077117,3.83069788,43.60736086,3.83223552
TU_BUS_000003,S5920,S5923,Alexandre Yersin,Mourèze,43.60396102,3.832690825,43.60736086,3.83223552
TU_BUS_000004,S5658,S5920,Sophie Germain,Alexandre Yersin,43.60505589,3.83542253,43.60396102,3.832690825
TU_BUS_000005,S5550,S5658,Martellière,Sophie Germain,43.606950095,3.837878445,43.60505589,3.83542253
TU_BUS_000006,S5540,S5550,Lycée Jules Ferry,Martellière,43.608687295,3.840955145,43.606950095,3.837878445
TU_BUS_000007,S5463,S5540,François Dezeuze,Lycée Jules Ferry,43.60863318,3.84613126,43.608687295,3.840955145
TU_BUS_000008,S5457,S5463,Figairasse,François Dezeuze,43.607120475,3.850489305,43.60863318,3.84613126
TU_BUS_000009,S5449,S5457,Étoile,Figairasse,43.60516753,3.854816865,43.607120475,3.850489305
TU_BUS_000010,S5449,S5554,Étoile,Mas de Merle,43.60516753,3.854816865,43.604401695,3.85749953
TU_BUS_000011,S5483,S5554,Cité Créative,Mas de Merle,43.60305623,3.86271499,43.604401695,3.85749953
TU_BUS_000012,S5436,S5483,Croix du Capitaine,Cité Créative,43.60204833,3.86660945,43.60305623,3.86271499
TU_BUS_000013,S5391,S5436,Berthelot,Croix du Capitaine,43.60124442,3.86942068,43.60204833,3.86660945
TU_BUS_000014,S5391,S5922,Berthelot,Ernest Michel,43.60124442,3.86942068,43.59958804,3.87338406
TU_BUS_000015,S5629,S5922,Rondelet,Ernest Michel,43.6033504316667,3.875474865,43.59958804,3.87338406
TU_BUS_000016,S5629,S5827,Rondelet,Gare Saint-Roch (Pont de Sète),43.6033504316667,3.875474865,43.6040141375,3.878528735
TU_BUS_000017,S5465,S5827,Frédéric Bazille,Gare Saint-Roch (Pont de Sète),43.60271354,3.88053167,43.6040141375,3.878528735
TU_BUS_000018,S5416,S5465,Cité Mion,Frédéric Bazille,43.600936575,3.884726605,43.60271354,3.88053167
TU_BUS_000019,S5416,S5500,Cité Mion,Iris,43.600936575,3.884726605,43.59875025,3.885483755
TU_BUS_000020,S5466,S5500,Frédéric Fabrège,Iris,43.597363925,3.88655942,43.59875025,3.885483755
TU_BUS_000021,S5466,S5536,Frédéric Fabrège,Lucullus,43.597363925,3.88655942,43.594773645,3.888530005
TU_BUS_000022,S5414,S5536,Cité de l'Arme,Lucullus,43.593462115,3.88940347,43.594773645,3.888530005
TU_BUS_000023,S5414,S5470,Cité de l'Arme,Garcia Lorca,43.593462115,3.88940347,43.59120512625,3.89046299125
TU_BUS_000024,S5470,S5551,Garcia Lorca,Mas Argelliers,43.59120512625,3.89046299125,43.58666355,3.889262025
TU_BUS_000025,S5551,S5655,Mas Argelliers,Saporta,43.58666355,3.889262025,43.584111735,3.887925135
TU_BUS_000026,S5556,S5655,Mas Saint-Pierre,Saporta,43.58211885,3.87987639,43.584111735,3.887925135
TU_BUS_000027,S5556,S5663,Mas Saint-Pierre,Tournezy,43.58211885,3.87987639,43.57912723,3.87785425
TU_BUS_000028,S5416,S5604,Cité Mion,Place Carnot,43.600936575,3.884726605,43.6036317566667,3.88400791
TU_BUS_000029,S5494,S5604,Henri René,Place Carnot,43.60310677,3.88195254,43.6036317566667,3.88400791
TU_BUS_000030,S5494,S5827,Henri René,Gare Saint-Roch (Pont de Sète),43.60310677,3.88195254,43.6040141375,3.878528735
TU_BUS_000031,S5391,S5609,Berthelot,Place du 8 Mai,43.60124442,3.86942068,43.599775995,3.86678363
TU_BUS_000032,S5487,S5609,Guillaume Janvier,Place du 8 Mai,43.598040665,3.864900295,43.599775995,3.86678363
TU_BUS_000033,S5487,S5965,Guillaume Janvier,Parc Montcalm,43.598040665,3.864900295,43.59999468,3.85988711
TU_BUS_000034,S5965,S5966,Parc Montcalm,Chamberte - Les Roses,43.59999468,3.85988711,43.60330554,3.85649926
TU_BUS_000035,S5554,S5966,Mas de Merle,Chamberte - Les Roses,43.604401695,3.85749953,43.60330554,3.85649926
TU_BUS_000036,S5488,S5923,Gustave Eiffel,Mourèze,43.60926412,3.83274311,43.60736086,3.83223552
TU_BUS_000037,S5435,S5488,Croix des Rosiers,Gustave Eiffel,43.61077117,3.83069788,43.60926412,3.83274311
TU_BUS_000038,S5401,S5622,Celleneuve,Renaudel,43.615757055,3.82588522,43.61462255,3.82813844
TU_BUS_000039,S5548,S5622,Marie Curie,Renaudel,43.61480082,3.83118066,43.61462255,3.82813844
TU_BUS_000040,S5548,S5589,Marie Curie,Petit Bard,43.61480082,3.83118066,43.614609405,3.835271085
TU_BUS_000041,S5589,S5662,Petit Bard,Tonnelles,43.614609405,3.835271085,43.6136009216667,3.83884714833333
TU_BUS_000042,S5389,S5662,Belvédère,Tonnelles,43.617129325,3.842513825,43.6136009216667,3.83884714833333
TU_BUS_000043,S5389,S5634,Belvédère,Saint-Clément,43.617129325,3.842513825,43.617731755,3.84444143
TU_BUS_000044,S5517,S5634,Las Cazes,Saint-Clément,43.61632218,3.84689126,43.617731755,3.84444143
TU_BUS_000045,S5446,S5517,Espérance,Las Cazes,43.614251535,3.84968228,43.61632218,3.84689126
TU_BUS_000046,S5446,S5638,Espérance,Saint-Gabriel,43.614251535,3.84968228,43.61456306,3.852152755
TU_BUS_000047,S5519,S5638,Las Sorbes,Saint-Gabriel,43.615220485,3.85495415,43.61456306,3.852152755
TU_BUS_000048,S5444,S5519,Érables,Las Sorbes,43.614953865,3.856976245,43.615220485,3.85495415
TU_BUS_000049,S5444,S5535,Érables,Louvain,43.614953865,3.856976245,43.61339519,3.8588216
TU_BUS_000050,S5384,S5535,Avenue de l'Agriculture,Louvain,43.612139885,3.8611451,43.61339519,3.8588216
TU_BUS_000051,S5384,S5481,Avenue de l'Agriculture,Glycines,43.612139885,3.8611451,43.6119354,3.86353371
TU_BUS_000052,S5481,S5576,Glycines,Paladilhe,43.6119354,3.86353371,43.61219869,3.86685039
TU_BUS_000053,S5440,S5576,Doria,Paladilhe,43.61261756,3.86784935666667,43.61219869,3.86685039
TU_BUS_000054,S5440,S5648,Doria,Saint-Roch,43.61261756,3.86784935666667,43.6152104,3.86969648
TU_BUS_000055,S5513,S5648,La Pile,Saint-Roch,43.61731833,3.86811974,43.6152104,3.86969648
TU_BUS_000056,S5495,S5513,Hippolyte Rech,La Pile,43.61958296,3.865631395,43.61731833,3.86811974
TU_BUS_000057,S5495,S5593,Hippolyte Rech,Pierre d'Adhémar,43.61958296,3.865631395,43.622150195,3.86399242
TU_BUS_000058,S5456,S5593,Fac de Pharmacie,Pierre d'Adhémar,43.624126705,3.86248603,43.622150195,3.86399242
TU_BUS_000059,S5456,S5637,Fac de Pharmacie,Saint-Éloi,43.624126705,3.86248603,43.626668085,3.8660221925
TU_BUS_000060,S5492,S5637,Henri Dunant,Saint-Éloi,43.626838505,3.869068085,43.626668085,3.8660221925
TU_BUS_000061,S5492,S5651,Henri Dunant,Sainte-Odile,43.626838505,3.869068085,43.622700135,3.873090225
TU_BUS_000062,S5547,S5651,Marie Caizergues,Sainte-Odile,43.621260205,3.87541501,43.622700135,3.873090225
TU_BUS_000063,S5547,S5568,Marie Caizergues,Nazareth,43.621260205,3.87541501,43.621680905,3.880277185
TU_BUS_000064,S5568,S5596,Nazareth,Pierre Rouge,43.621680905,3.880277185,43.62299662,3.882571165
TU_BUS_000065,S5368,S5596,Aiguelongue,Pierre Rouge,43.6264142775,3.8826203625,43.62299662,3.882571165
TU_BUS_000066,S5368,S5420,Aiguelongue,Clolus,43.6264142775,3.8826203625,43.628602545,3.881256355
TU_BUS_000067,S5373,S5420,Alpilles,Clolus,43.629986475,3.8794002,43.628602545,3.881256355
TU_BUS_000068,S5373,S5406,Alpilles,Chantecler,43.629986475,3.8794002,43.632372095,3.878220775
TU_BUS_000069,S5406,S5601,Chantecler,Pioch de Boutonnet,43.632372095,3.878220775,43.63389396,3.87740783
TU_BUS_000070,S5565,S5601,Moulin de Gasconnet,Pioch de Boutonnet,43.63388536,3.87453608,43.63389396,3.87740783
TU_BUS_000071,S5565,S5623,Moulin de Gasconnet,René Bougnol,43.63388536,3.87453608,43.63647685,3.87404888
TU_BUS_000072,S5379,S5623,Antoine-Laurent de Jussieu,René Bougnol,43.63730763,3.88010551,43.63647685,3.87404888
TU_BUS_000073,S5369,S5379,Aiguelongue (Jussieu),Antoine-Laurent de Jussieu,43.638474885,3.88303977,43.63730763,3.88010551
TU_BUS_000074,S5593,S5637,Pierre d'Adhémar,Saint-Éloi,43.622150195,3.86399242,43.626668085,3.8660221925
TU_BUS_000075,S5495,S5942,Hippolyte Rech,Portalière des Masques,43.61958296,3.865631395,43.61725226,3.86643516
TU_BUS_000076,S5576,S5942,Paladilhe,Portalière des Masques,43.61219869,3.86685039,43.61725226,3.86643516
TU_BUS_000077,S5498,S5539,Hôtel du Département,Lycée Jean Monnet,43.62187434,3.83501314,43.624228285,3.834948055
TU_BUS_000078,S5504,S5539,Jean Bart,Lycée Jean Monnet,43.62558389,3.83767525,43.624228285,3.834948055
TU_BUS_000079,S5409,S5504,Château d'Ô,Jean Bart,43.631475258,3.842887188,43.62558389,3.83767525
TU_BUS_000080,S5409,S5612,Château d'Ô,Pléiade,43.631475258,3.842887188,43.62848701,3.84579593
TU_BUS_000081,S5460,S5612,Font Trouvé,Pléiade,43.626943105,3.84788374,43.62848701,3.84579593
TU_BUS_000082,S5460,S5471,Font Trouvé,Gardioles,43.626943105,3.84788374,43.62489357,3.851412125
TU_BUS_000083,S5403,S5471,Cervantès,Gardioles,43.62259024,3.854760265,43.62489357,3.851412125
TU_BUS_000084,S5403,S5515,Cervantès,La Source,43.62259024,3.854760265,43.62136678,3.856423045
TU_BUS_000085,S5417,S5515,Cité Roger,La Source,43.62043117,3.858390405,43.62136678,3.856423045
TU_BUS_000086,S5417,S5616,Cité Roger,Pous de la Sers,43.62043117,3.858390405,43.619204985,3.861519295
TU_BUS_000087,S5542,S5616,Maison des Sports,Pous de la Sers,43.61838562,3.86447951,43.619204985,3.861519295
TU_BUS_000088,S5542,S5942,Maison des Sports,Portalière des Masques,43.61838562,3.86447951,43.61725226,3.86643516
TU_BUS_000089,S5440,S5942,Doria,Portalière des Masques,43.61261756,3.86784935666667,43.61725226,3.86643516
TU_BUS_000090,S5513,S5542,La Pile,Maison des Sports,43.61731833,3.86811974,43.61838562,3.86447951
TU_BUS_000091,S5471,S5566,Gardioles,Mûriers,43.62489357,3.851412125,43.62619707,3.84916342
TU_BUS_000092,S5460,S5566,Font Trouvé,Mûriers,43.626943105,3.84788374,43.62619707,3.84916342
TU_BUS_000093,S5409,S5539,Château d'Ô,Lycée Jean Monnet,43.631475258,3.842887188,43.624228285,3.834948055
TU_BUS_000094,S5506,S5524,Jean Mermoz,Léon Blum,43.61254775,3.88935934,43.6090469666667,3.89024981
TU_BUS_000095,S5506,S5528,Jean Mermoz,Les Aubes,43.61254775,3.88935934,43.6138008275,3.8886448375
TU_BUS_000096,S5445,S5528,Ernest Renan,Les Aubes,43.61545532,3.88532427,43.6138008275,3.8886448375
TU_BUS_000097,S5445,S5599,Ernest Renan,Pinsons,43.61545532,3.88532427,43.617942175,3.88712404
TU_BUS_000098,S5448,S5599,Estragon,Pinsons,43.61863273,3.887866655,43.617942175,3.88712404
TU_BUS_000099,S5392,S5448,Boulevard des Sports,Estragon,43.61948062,3.88954782,43.61863273,3.887866655
TU_BUS_000100,S5392,S5464,Boulevard des Sports,Françoise,43.61948062,3.88954782,43.62000294,3.891362475
TU_BUS_000101,S5464,S5644,Françoise,Saint-Maur,43.62000294,3.891362475,43.621039445,3.893989335
TU_BUS_000102,S5578,S5644,Palombes,Saint-Maur,43.619632655,3.89398191,43.621039445,3.893989335
TU_BUS_000103,S5461,S5578,Foyer des Aubes,Palombes,43.61847983,3.894754785,43.619632655,3.89398191
TU_BUS_000104,S5461,S5473,Foyer des Aubes,Garigliano,43.61847983,3.894754785,43.61872124,3.89734135
TU_BUS_000105,S5473,S5959,Garigliano,Jules Isaac,43.61872124,3.89734135,43.62214345,3.89816498
TU_BUS_000106,S5584,S5959,Pastourelles,Jules Isaac,43.621848395,3.900854595,43.62214345,3.89816498
TU_BUS_000107,S5380,S5584,Apollo,Pastourelles,43.62192158,3.90883211,43.621848395,3.900854595
TU_BUS_000108,S5380,S5956,Apollo,Becquerel,43.62192158,3.90883211,43.61842025,3.91406892
TU_BUS_000109,S5876,S5956,Walhalla,Becquerel,43.618045195,3.91666946,43.61842025,3.91406892
TU_BUS_000110,S5533,S5876,Louis Lépine,Walhalla,43.61550055,3.91578242,43.618045195,3.91666946
TU_BUS_000111,S5533,S5676,Louis Lépine,Volta Fizeau,43.61550055,3.91578242,43.61391632,3.9134558
TU_BUS_000112,S5486,S5676,Guglielmo Marconi,Volta Fizeau,43.611653285,3.912366415,43.61391632,3.9134558
TU_BUS_000113,S5454,S5486,Évariste Galois,Guglielmo Marconi,43.60915271,3.912464455,43.611653285,3.912366415
TU_BUS_000114,S5454,S5654,Évariste Galois,Samuel Morse,43.60915271,3.912464455,43.6067497,3.913270365
TU_BUS_000115,S5572,S5654,Odysseum,Samuel Morse,43.6042340125,3.9199430925,43.6067497,3.913270365
TU_BUS_000116,S5572,S5605,Odysseum,Place de France,43.6042340125,3.9199430925,43.603759528,3.915564274
TU_BUS_000117,S5559,S5605,Millénaire,Place de France,43.6031326475,3.910093335,43.603759528,3.915564274
TU_BUS_000118,S5559,S5668,Millénaire,Vauguières,43.6031326475,3.910093335,43.60447763,3.90692939
TU_BUS_000119,S5580,S5668,Parc de la Lironde,Vauguières,43.607950215,3.90675267,43.60447763,3.90692939
TU_BUS_000120,S5580,S5871,Parc de la Lironde,Léon Cazal,43.607950215,3.90675267,43.60567607,3.9033252
TU_BUS_000121,S5871,S5874,Léon Cazal,Pont Juvénal,43.60567607,3.9033252,43.60621844,3.89814412
TU_BUS_000122,S5606,S5874,Place de l'Europe,Pont Juvénal,43.6073732642857,3.89375728142857,43.60621844,3.89814412
TU_BUS_000123,S5606,S5961,Place de l'Europe,Pont Juvénal - Platon,43.6073732642857,3.89375728142857,43.60653515,3.89862289
TU_BUS_000124,S5871,S5961,Léon Cazal,Pont Juvénal - Platon,43.60567607,3.9033252,43.60653515,3.89862289
TU_BUS_000125,S5559,S5572,Millénaire,Odysseum,43.6031326475,3.910093335,43.6042340125,3.9199430925
TU_BUS_000126,S5605,S5654,Place de France,Samuel Morse,43.603759528,3.915564274,43.6067497,3.913270365
TU_BUS_000127,S5676,S5938,Volta Fizeau,Louis Lépine,43.61391632,3.9134558,43.61575306,3.91572754
TU_BUS_000128,S5876,S5938,Walhalla,Louis Lépine,43.618045195,3.91666946,43.61575306,3.91572754
TU_BUS_000129,S5876,S5937,Walhalla,Becquerel,43.618045195,3.91666946,43.61774289,3.91366662
TU_BUS_000130,S5380,S5937,Apollo,Becquerel,43.62192158,3.90883211,43.61774289,3.91366662
TU_BUS_000131,S5524,S5528,Léon Blum,Les Aubes,43.6090469666667,3.89024981,43.6138008275,3.8886448375
TU_BUS_000132,S5614,S5874,Port Marianne,Pont Juvénal,43.6020179433333,3.89975705,43.60621844,3.89814412
TU_BUS_000133,S5587,S5606,Paul Painlevé,Place de l'Europe,43.610214075,3.899097745,43.6073732642857,3.89375728142857
TU_BUS_000134,S5425,S5587,Colverts,Paul Painlevé,43.613751605,3.89815828,43.610214075,3.899097745
TU_BUS_000135,S5425,S5641,Colverts,Saint-Jean,43.613751605,3.89815828,43.61556012,3.897737535
TU_BUS_000136,S5549,S5641,Marie Durand,Saint-Jean,43.618352245,3.89799327,43.61556012,3.897737535
TU_BUS_000137,S5376,S5549,André Malraux,Marie Durand,43.619464315,3.900356205,43.618352245,3.89799327
TU_BUS_000138,S5376,S5656,André Malraux,Semard,43.619464315,3.900356205,43.6194078775,3.9037915875
TU_BUS_000139,S5595,S5656,Pierre Laroque,Semard,43.621339895,3.90431174,43.6194078775,3.9037915875
TU_BUS_000140,S5380,S5595,Apollo,Pierre Laroque,43.62192158,3.90883211,43.621339895,3.90431174
TU_BUS_000141,S5194,S5380,Mas de Rochet,Apollo,43.62563295,3.9061436,43.62192158,3.90883211
TU_BUS_000142,S5194,S5198,Mas de Rochet,Pioch Pelat,43.62563295,3.9061436,43.62624249,3.90223108
TU_BUS_000143,S5177,S5198,Charles de Gaulle,Pioch Pelat,43.62817536375,3.8974032625,43.62624249,3.90223108
TU_BUS_000144,S5606,S5960,Place de l'Europe,Pont Juvénal,43.6073732642857,3.89375728142857,43.606236945,3.89810751
TU_BUS_000145,S5614,S5960,Port Marianne,Pont Juvénal,43.6020179433333,3.89975705,43.606236945,3.89810751
TU_BUS_000146,S5529,S5586,Les Bouisses,Paul Fajon,43.5986651566667,3.83536415333333,43.596375575,3.83711203
TU_BUS_000147,S5478,S5586,Georges Danton,Paul Fajon,43.599587135,3.84309053,43.596375575,3.83711203
TU_BUS_000148,S5478,S5582,Georges Danton,Pas du Loup,43.599587135,3.84309053,43.601174545,3.8491566
TU_BUS_000149,S5521,S5582,Lavandin,Pas du Loup,43.600085025,3.8534572,43.601174545,3.8491566
TU_BUS_000150,S5521,S5678,Lavandin,Winston Churchill,43.600085025,3.8534572,43.599079645,3.8559168
TU_BUS_000151,S5674,S5678,Vivaldi,Winston Churchill,43.597050395,3.856066935,43.599079645,3.8559168
TU_BUS_000152,S5618,S5674,Puccini,Vivaldi,43.594965465,3.854100525,43.597050395,3.856066935
TU_BUS_000153,S5501,S5618,Irissou,Puccini,43.594025085,3.85288817,43.594965465,3.854100525
TU_BUS_000154,S5501,S5921,Irissou,Bugarel,43.594025085,3.85288817,43.592388475,3.852925135
TU_BUS_000155,S5522,S5921,Le Grand M,Bugarel,43.5909052933333,3.85484196,43.592388475,3.852925135
TU_BUS_000156,S5385,S5522,Avenue de Toulouse,Le Grand M,43.591585885,3.8579067,43.5909052933333,3.85484196
TU_BUS_000157,S5385,S5628,Avenue de Toulouse,Ronceray,43.591585885,3.8579067,43.59384411,3.860329205
TU_BUS_000158,S5477,S5628,Georges Brassens,Ronceray,43.59578297,3.862446515,43.59384411,3.860329205
TU_BUS_000159,S5477,S5487,Georges Brassens,Guillaume Janvier,43.59578297,3.862446515,43.598040665,3.864900295
TU_BUS_000160,S5440,S5652,Doria,Sainte-Thérèse,43.61261756,3.86784935666667,43.614197345,3.865369695
TU_BUS_000161,S5422,S5652,Collège Camille Claudel,Sainte-Thérèse,43.616432805,3.86207633,43.614197345,3.865369695
TU_BUS_000162,S5422,S5511,Collège Camille Claudel,La Gaillarde,43.616432805,3.86207633,43.6162808,3.858187035
TU_BUS_000163,S5511,S5597,La Gaillarde,Pierre Viala,43.6162808,3.858187035,43.617010685,3.85454391
TU_BUS_000164,S5534,S5597,Louis Ravaz,Pierre Viala,43.61987619,3.85181424,43.617010685,3.85454391
TU_BUS_000165,S5518,S5534,Las Rébès,Louis Ravaz,43.6207801,3.84921177,43.61987619,3.85181424
TU_BUS_000166,S5404,S5518,Cévennes,Las Rébès,43.622066595,3.846245,43.6207801,3.84921177
TU_BUS_000167,S5404,S5650,Cévennes,Sainte-Geneviève,43.622066595,3.846245,43.623240985,3.84422182
TU_BUS_000168,S5371,S5650,Alco,Sainte-Geneviève,43.625723385,3.83993123,43.623240985,3.84422182
TU_BUS_000169,S5371,S5409,Alco,Château d'Ô,43.625723385,3.83993123,43.631475258,3.842887188
TU_BUS_000170,S5409,S5647,Château d'Ô,Saint-Priest,43.631475258,3.842887188,43.634818815,3.843642525
TU_BUS_000171,S5571,S5647,Occitanie,Saint-Priest,43.6346144,3.84841683166667,43.634818815,3.843642525
TU_BUS_000172,S5374,S5571,Ambroise Paré,Occitanie,43.63804826,3.84768255,43.6346144,3.84841683166667
TU_BUS_000173,S5374,S5632,Ambroise Paré,Route de Ganges,43.63804826,3.84768255,43.642919055,3.845224225
TU_BUS_000174,S5377,S5632,Antennes,Route de Ganges,43.644728835,3.84211528,43.642919055,3.845224225
TU_BUS_000175,S5377,S5667,Antennes,Val d'Aurelle,43.644728835,3.84211528,43.642756905,3.83618943
TU_BUS_000176,S5381,S5667,Apothicaires,Val d'Aurelle,43.641653505,3.835046355,43.642756905,3.83618943
TU_BUS_000177,S5381,S5619,Apothicaires,Puech Villa,43.641653505,3.835046355,43.639904465,3.829553955
TU_BUS_000178,S5453,S5619,Euromédecine,Puech Villa,43.63905096,3.828146522,43.639904465,3.829553955
TU_BUS_000179,S5382,S5453,Appel du 18 Juin,Euromédecine,43.6367686,3.83041886,43.63905096,3.828146522
TU_BUS_000180,S5382,S5619,Appel du 18 Juin,Puech Villa,43.6367686,3.83041886,43.639904465,3.829553955
TU_BUS_000181,S5571,S5632,Occitanie,Route de Ganges,43.6346144,3.84841683166667,43.642919055,3.845224225
TU_BUS_000182,S5371,S5504,Alco,Jean Bart,43.625723385,3.83993123,43.62558389,3.83767525
TU_BUS_000183,S5576,S5652,Paladilhe,Sainte-Thérèse,43.61219869,3.86685039,43.614197345,3.865369695
TU_BUS_000184,S5516,S5580,Lagoya,Parc de la Lironde,43.612159575,3.905983735,43.607950215,3.90675267
TU_BUS_000185,S5516,S5600,Lagoya,Pinville,43.612159575,3.905983735,43.61397539,3.905371665
TU_BUS_000186,S5482,S5600,Goélands,Pinville,43.61637065,3.903234965,43.61397539,3.905371665
TU_BUS_000187,S5482,S5656,Goélands,Semard,43.61637065,3.903234965,43.6194078775,3.9037915875
TU_BUS_000188,S5584,S5595,Pastourelles,Pierre Laroque,43.621848395,3.900854595,43.621339895,3.90431174
TU_BUS_000189,S5653,S5959,Salaison,Jules Isaac,43.62385233,3.89873146,43.62214345,3.89816498
TU_BUS_000190,S5190,S5653,La Pompignane (Les Lacs),Salaison,43.62523849,3.900167805,43.62385233,3.89873146
TU_BUS_000191,S5177,S5190,Charles de Gaulle,La Pompignane (Les Lacs),43.62817536375,3.8974032625,43.62523849,3.900167805
TU_BUS_000192,S5177,S5177,Charles de Gaulle,Charles de Gaulle,43.62817536375,3.8974032625,43.62817536375,3.8974032625
TU_BUS_000193,S5177,S5642,Charles de Gaulle,Saint-Lazare,43.62817536375,3.8974032625,43.6269325875,3.88880371
TU_BUS_000194,S5558,S5642,Maurice Chevalier,Saint-Lazare,43.62841497,3.887457885,43.6269325875,3.88880371
TU_BUS_000195,S5558,S5630,Maurice Chevalier,Roqueturière,43.62841497,3.887457885,43.630111585,3.885746505
TU_BUS_000196,S5390,S5630,Bengalis,Roqueturière,43.628635425,3.883045595,43.630111585,3.885746505
TU_BUS_000197,S5368,S5390,Aiguelongue,Bengalis,43.6264142775,3.8826203625,43.628635425,3.883045595
TU_BUS_000198,S5368,S5664,Aiguelongue,Tourterelles,43.6264142775,3.8826203625,43.625786785,3.878556595
TU_BUS_000199,S5649,S5664,Sainte-Catherine,Tourterelles,43.626333525,3.876461315,43.625786785,3.878556595
TU_BUS_000200,S5543,S5649,Major Flandre,Sainte-Catherine,43.626952605,3.87338408,43.626333525,3.876461315
TU_BUS_000201,S5492,S5543,Henri Dunant,Major Flandre,43.626838505,3.869068085,43.626952605,3.87338408
TU_BUS_000202,S5456,S5675,Fac de Pharmacie,Voie Domitienne,43.624126705,3.86248603,43.622448355,3.86005905
TU_BUS_000203,S5413,S5675,Cinsaults,Voie Domitienne,43.62056808,3.856964825,43.622448355,3.86005905
TU_BUS_000204,S5413,S5493,Cinsaults,Henri Marès,43.62056808,3.856964825,43.62014547,3.854088945
TU_BUS_000205,S5493,S5534,Henri Marès,Louis Ravaz,43.62014547,3.854088945,43.61987619,3.85181424
TU_BUS_000206,S5534,S5626,Louis Ravaz,Rièges,43.61987619,3.85181424,43.61965914,3.849336755
TU_BUS_000207,S5505,S5626,Jean Calvin,Rièges,43.618623525,3.845925085,43.61965914,3.849336755
TU_BUS_000208,S5389,S5505,Belvédère,Jean Calvin,43.617129325,3.842513825,43.618623525,3.845925085
TU_BUS_000209,S5540,S5662,Lycée Jules Ferry,Tonnelles,43.608687295,3.840955145,43.6136009216667,3.83884714833333
TU_BUS_000210,S5573,S5658,Ormeaux,Sophie Germain,43.60252455,3.833531505,43.60505589,3.83542253
TU_BUS_000211,S5529,S5573,Les Bouisses,Ormeaux,43.5986651566667,3.83536415333333,43.60252455,3.833531505
TU_BUS_000212,S5424,S5586,Collège Marcel Pagnol,Paul Fajon,43.596258555,3.84649082,43.596375575,3.83711203
TU_BUS_000213,S5424,S5921,Collège Marcel Pagnol,Bugarel,43.596258555,3.84649082,43.592388475,3.852925135
TU_BUS_000214,S5522,S5552,Le Grand M,Mas de Bagnères,43.5909052933333,3.85484196,43.587421635,3.858377095
TU_BUS_000215,S5552,S5633,Mas de Bagnères,Sabines,43.587421635,3.858377095,43.583822352,3.860158464
TU_BUS_000216,S5559,S5964,Millénaire,Odysseum,43.6031326475,3.910093335,43.60506758,3.91673114
TU_BUS_000217,S5465,S5491,Frédéric Bazille,Hélios,43.60271354,3.88053167,43.60099589,3.88560649
TU_BUS_000218,S5491,S5657,Hélios,Soleiado,43.60099589,3.88560649,43.60050774,3.88673748
TU_BUS_000219,S5405,S5657,Chambéry,Soleiado,43.59910248,3.889445435,43.60050774,3.88673748
TU_BUS_000220,S5405,S5423,Chambéry,Collège des Aiguerelles,43.59910248,3.889445435,43.597575135,3.892199415
TU_BUS_000221,S5423,S5507,Collège des Aiguerelles,Jean Mirailhet,43.597575135,3.892199415,43.595319745,3.891191785
TU_BUS_000222,S5470,S5507,Garcia Lorca,Jean Mirailhet,43.59120512625,3.89046299125,43.595319745,3.891191785
TU_BUS_000223,S5470,S5546,Garcia Lorca,Maréchal Leclerc,43.59120512625,3.89046299125,43.594318885,3.88513482
TU_BUS_000224,S5546,S5926,Maréchal Leclerc,Centrayrargues,43.594318885,3.88513482,43.59660454,3.88088611
TU_BUS_000225,S5402,S5438,Centrayrargues,Descartes,43.59686638,3.8808066,43.59667439,3.88354737
TU_BUS_000226,S5438,S5621,Descartes,Razeteurs,43.59667439,3.88354737,43.59557912,3.88407432
TU_BUS_000227,S5546,S5621,Maréchal Leclerc,Razeteurs,43.594318885,3.88513482,43.59557912,3.88407432
TU_BUS_000228,S5416,S5657,Cité Mion,Soleiado,43.600936575,3.884726605,43.60050774,3.88673748
TU_BUS_000229,S5451,S5665,Eugène Bataillon,Universités des Sciences et Lettres,43.631604815,3.860668445,43.629406725,3.86131316166667
TU_BUS_000230,S5451,S5475,Eugène Bataillon,Gascogne,43.631604815,3.860668445,43.63436554,3.85996855
TU_BUS_000231,S5475,S5903,Gascogne,Paul Parguel,43.63436554,3.85996855,43.63664447,3.85996746
TU_BUS_000232,S5442,S5903,École d'Architecture,Paul Parguel,43.637812925,3.85870513,43.63664447,3.85996746
TU_BUS_000233,S5442,S5557,École d'Architecture,Maurice Chauvet,43.637812925,3.85870513,43.638574005,3.856683015
TU_BUS_000234,S5557,S5591,Maurice Chauvet,Pic Saint-Loup,43.638574005,3.856683015,43.63915378,3.8544456
TU_BUS_000235,S5591,S5611,Pic Saint-Loup,Plan des 4 Seigneurs,43.63915378,3.8544456,43.640827535,3.8578509
TU_BUS_000236,S5497,S5611,Hortus,Plan des 4 Seigneurs,43.643099095,3.85997256,43.640827535,3.8578509
TU_BUS_000237,S5497,S5537,Hortus,Lycée Frédéric Bazille,43.643099095,3.85997256,43.6452835233333,3.86232108333333
TU_BUS_000238,S5397,S5537,Campus Agropolis,Lycée Frédéric Bazille,43.6446802,3.86896928,43.6452835233333,3.86232108333333
TU_BUS_000239,S5397,S5681,Campus Agropolis,Zoo,43.6446802,3.86896928,43.639937545,3.87312703
TU_BUS_000240,S5520,S5681,Lavalette,Zoo,43.637735195,3.869311025,43.639937545,3.87312703
TU_BUS_000241,S5520,S5670,Lavalette,Vert-Bois,43.637735195,3.869311025,43.6348552,3.86795266
TU_BUS_000242,S5670,S5902,Vert-Bois,École de Chimie,43.6348552,3.86795266,43.634301445,3.865152915
TU_BUS_000243,S5902,S5903,École de Chimie,Paul Parguel,43.634301445,3.865152915,43.63664447,3.85996746
TU_BUS_000244,S5367,S5397,Agropolis,Campus Agropolis,43.64674464,3.8685625,43.6446802,3.86896928
TU_BUS_000245,S5367,S5673,Agropolis,Vincent Auriol,43.64674464,3.8685625,43.64776173,3.8640215
TU_BUS_000246,S5537,S5673,Lycée Frédéric Bazille,Vincent Auriol,43.6452835233333,3.86232108333333,43.64776173,3.8640215
TU_BUS_000247,S5633,S5906,Sabines,Etienne Méhul,43.583822352,3.860158464,43.578644675,3.859886905
TU_BUS_000248,S5906,S5908,Etienne Méhul,Raymond Recouly,43.578644675,3.859886905,43.57583367,3.860016005
TU_BUS_000249,S5908,S5939,Raymond Recouly,Georges Onslow,43.57583367,3.860016005,43.572639925,3.861470195
TU_BUS_000250,S5939,S5940,Georges Onslow,Pont de Guerre,43.572639925,3.861470195,43.57394239,3.867266665
TU_BUS_000251,S5450,S5940,Ettore Bugatti,Pont de Guerre,43.577878025,3.86865803,43.57394239,3.867266665
TU_BUS_000252,S5450,S5661,Ettore Bugatti,TaM,43.577878025,3.86865803,43.581424975,3.87019992
TU_BUS_000253,S5437,S5661,Demeter,TaM,43.58327517,3.8722158,43.581424975,3.87019992
TU_BUS_000254,S5399,S5437,Castelle,Demeter,43.586630385,3.8720648,43.58327517,3.8722158
TU_BUS_000255,S5399,S5583,Castelle,Passerines,43.586630385,3.8720648,43.58854003,3.872425295
TU_BUS_000256,S5530,S5583,Les Pins,Passerines,43.590804915,3.87340758,43.58854003,3.872425295
TU_BUS_000257,S5530,S5635,Les Pins,Saint-Cléophas,43.590804915,3.87340758,43.5949304025,3.8758284025
TU_BUS_000258,S5553,S5594,Mas de Bellevue,Pierre de Coubertin,43.63681437,3.81266425,43.637806405,3.814738435
TU_BUS_000259,S5427,S5553,Comté de Nice,Mas de Bellevue,43.63877674,3.811483355,43.63681437,3.81266425
TU_BUS_000260,S5427,S5430,Comté de Nice,Corse,43.63877674,3.811483355,43.64076861,3.811435785
TU_BUS_000261,S5430,S5502,Corse,Jacques Prévert,43.64076861,3.811435785,43.642314475,3.81410003
TU_BUS_000262,S5502,S5949,Jacques Prévert,Collège les Garrigues,43.642314475,3.81410003,43.64308353,3.816700965
TU_BUS_000263,S5608,S5949,Place d'Italie,Collège les Garrigues,43.64184266,3.81836469,43.64308353,3.816700965
TU_BUS_000264,S5398,S5608,Carriéra,Place d'Italie,43.640816765,3.81909935,43.64184266,3.81836469
TU_BUS_000265,S5398,S5592,Carriéra,Pierre Cardenal,43.640816765,3.81909935,43.63836513,3.818911915
TU_BUS_000266,S5428,S5592,Comté de Toulouse,Pierre Cardenal,43.636906435,3.819084465,43.63836513,3.818911915
TU_BUS_000267,S5428,S5620,Comté de Toulouse,Raimbaud d'Orange,43.636906435,3.819084465,43.63746292,3.821116505
TU_BUS_000268,S5490,S5620,Hauts de Massane,Raimbaud d'Orange,43.63625433,3.82271583,43.63746292,3.821116505
TU_BUS_000269,S5476,S5490,Gémeaux,Hauts de Massane,43.63304272,3.822554895,43.63625433,3.82271583
TU_BUS_000270,S5476,S5950,Gémeaux,Uppsala,43.63304272,3.822554895,43.629740695,3.822431845
TU_BUS_000271,S5574,S5950,Oxford,Uppsala,43.627714855,3.822007865,43.629740695,3.822431845
TU_BUS_000272,S5541,S5574,Lycée Léonard de Vinci - Pierresvives,Oxford,43.625966,3.823998125,43.627714855,3.822007865
TU_BUS_000273,S5498,S5541,Hôtel du Département,Lycée Léonard de Vinci - Pierresvives,43.62187434,3.83501314,43.625966,3.823998125
TU_BUS_000274,S5498,S5581,Hôtel du Département,Parc Malbosc,43.62187434,3.83501314,43.62340226,3.83097263
TU_BUS_000275,S5541,S5581,Lycée Léonard de Vinci - Pierresvives,Parc Malbosc,43.625966,3.823998125,43.62340226,3.83097263
TU_BUS_000276,S5411,S5484,Cimetière Saint-Étienne,Grammont,43.61493063,3.93561341,43.61414078,3.93065442
TU_BUS_000277,S5411,S5680,Cimetière Saint-Étienne,Zénith,43.61493063,3.93561341,43.612162405,3.93100132
TU_BUS_000278,S5480,S5680,Georges Méliès,Zénith,43.606735235,3.922870225,43.612162405,3.93100132
TU_BUS_000279,S5480,S5572,Georges Méliès,Odysseum,43.606735235,3.922870225,43.6042340125,3.9199430925
TU_BUS_000280,S5480,S5605,Georges Méliès,Place de France,43.606735235,3.922870225,43.603759528,3.915564274
TU_BUS_000281,S5173,S5196,Castelnau Zone d'Activités,Notre-Dame de Sablassou,43.636282425,3.9267113,43.6341134433333,3.92248383166667
TU_BUS_000282,S5173,S5252,Castelnau Zone d'Activités,Pointes,43.636282425,3.9267113,43.638989745,3.933947665
TU_BUS_000283,S5252,S5254,Pointes,Route de Nîmes,43.638989745,3.933947665,43.641694925,3.942509235
TU_BUS_000284,S5254,S5782,Route de Nîmes,Châtaigniers,43.641694925,3.942509235,43.649267085,3.95652065
TU_BUS_000285,S5782,S5891,Châtaigniers,Jean-Marcel Castet,43.649267085,3.95652065,43.6530550066667,3.96151477333333
TU_BUS_000286,S5787,S5891,La Fontaine,Jean-Marcel Castet,43.657698675,3.962895555,43.6530550066667,3.96151477333333
TU_BUS_000287,S5210,S5787,Castries Centre,La Fontaine,43.675185765,3.98305753,43.657698675,3.962895555
TU_BUS_000288,S5209,S5210,Aqueduc,Castries Centre,43.679229375,3.986147195,43.675185765,3.98305753
TU_BUS_000289,S5209,S5211,Aqueduc,Collège Les Pins,43.679229375,3.986147195,43.68419849,3.99073834
TU_BUS_000290,S5286,S5292,Collège Pierre Mendès France,Jean Joubert,43.667421055,3.91276689,43.66723733,3.915505
TU_BUS_000291,S5292,S5293,Jean Joubert,La Draye,43.66723733,3.915505,43.666014905,3.9197995
TU_BUS_000292,S5293,S5298,La Draye,Le Pontil,43.666014905,3.9197995,43.662219145,3.924536165
TU_BUS_000293,S5294,S5298,Lou Pradet,Le Pontil,43.66212525,3.921741075,43.662219145,3.924536165
TU_BUS_000294,S5290,S5294,Hélios,Lou Pradet,43.66126239,3.918961825,43.66212525,3.921741075
TU_BUS_000295,S5290,S5303,Hélios,Tournesol,43.66126239,3.918961825,43.660333795,3.915753625
TU_BUS_000296,S5285,S5303,Coeur de Ville,Tournesol,43.65953554,3.91377504,43.660333795,3.915753625
TU_BUS_000297,S5285,S5295,Coeur de Ville,Lucien Lambert,43.65953554,3.91377504,43.65695378,3.912341645
TU_BUS_000298,S5291,S5295,Jacou,Lucien Lambert,43.65462876,3.91282845333333,43.65695378,3.912341645
TU_BUS_000299,S5280,S5295,Bibliothèque,Lucien Lambert,43.65904865,3.911093095,43.65695378,3.912341645
TU_BUS_000300,S5280,S5283,Bibliothèque,Cimetière Jacou,43.65904865,3.911093095,43.659374875,3.9081302
TU_BUS_000301,S5283,S5287,Cimetière Jacou,De Bocaud,43.659374875,3.9081302,43.659657485,3.904138305
TU_BUS_000302,S5212,S5287,Cap Alpha,De Bocaud,43.65984784,3.90050707333333,43.659657485,3.904138305
TU_BUS_000303,S5212,S5216,Cap Alpha,La Croisée,43.65984784,3.90050707333333,43.66005696,3.89826736
TU_BUS_000304,S5216,S5219,La Croisée,Moulières,43.66005696,3.89826736,43.66008945,3.89476386
TU_BUS_000305,S5219,S5220,Moulières,Olivette,43.66008945,3.89476386,43.65850535,3.88925988
TU_BUS_000306,S5217,S5220,Leenhardt,Olivette,43.65671581,3.88490219,43.65850535,3.88925988
TU_BUS_000307,S5217,S5218,Leenhardt,Médiathèque Albert Camus,43.65671581,3.88490219,43.65556975,3.88142892
TU_BUS_000308,S5218,S5221,Médiathèque Albert Camus,Pigeonniers,43.65556975,3.88142892,43.65379318,3.882761385
TU_BUS_000309,S5221,S5673,Pigeonniers,Vincent Auriol,43.65379318,3.882761385,43.64776173,3.8640215
TU_BUS_000310,S5421,S5670,CNRS,Vert-Bois,43.63884137,3.86546632,43.6348552,3.86795266
TU_BUS_000311,S5421,S5562,CNRS,Montmaur,43.63884137,3.86546632,43.64092704,3.86355395
TU_BUS_000312,S5537,S5562,Lycée Frédéric Bazille,Montmaur,43.6452835233333,3.86232108333333,43.64092704,3.86355395
TU_BUS_000313,S5537,S5919,Lycée Frédéric Bazille,Vincent Auriol,43.6452835233333,3.86232108333333,43.64837411,3.86458262
TU_BUS_000314,S5919,S5948,Vincent Auriol,Fesquet,43.64837411,3.86458262,43.65314463,3.88127662
TU_BUS_000315,S5221,S5948,Pigeonniers,Fesquet,43.65379318,3.882761385,43.65314463,3.88127662
TU_BUS_000316,S5221,S5222,Pigeonniers,Stade,43.65379318,3.882761385,43.65349863,3.88921037
TU_BUS_000317,S5213,S5222,Château,Stade,43.65530122,3.89223107,43.65349863,3.88921037
TU_BUS_000318,S5213,S5855,Château,Chêne Liège,43.65530122,3.89223107,43.659850305,3.896076115
TU_BUS_000319,S5212,S5855,Cap Alpha,Chêne Liège,43.65984784,3.90050707333333,43.659850305,3.896076115
TU_BUS_000320,S5721,S5882,Versant,Paris,43.66519794,4.037421985,43.66828353,4.04073411
TU_BUS_000321,S5882,S5883,Paris,Piscine Héraclès,43.66828353,4.04073411,43.66966495,4.037214525
TU_BUS_000322,S5883,S5884,Piscine Héraclès,Sainte-Colombe,43.66966495,4.037214525,43.668213025,4.03434743
TU_BUS_000323,S5717,S5884,Micocoulier,Sainte-Colombe,43.66683092,4.03046081,43.668213025,4.03434743
TU_BUS_000324,S5717,S5720,Micocoulier,Sophoras,43.66683092,4.03046081,43.66845173,4.02655803
TU_BUS_000325,S5155,S5720,Collège Le Bérange,Sophoras,43.66728761,4.02337778,43.66845173,4.02655803
TU_BUS_000326,S5155,S5156,Collège Le Bérange,Fenouillet,43.66728761,4.02337778,43.664311795,4.02193374
TU_BUS_000327,S5156,S5158,Fenouillet,Gaston Baissette,43.664311795,4.02193374,43.66449924,4.01710319
TU_BUS_000328,S5158,S5163,Gaston Baissette,Paradis,43.66449924,4.01710319,43.66396082,4.0141399
TU_BUS_000329,S5162,S5163,Mairie de Baillargues,Paradis,43.661511125,4.01354778,43.66396082,4.0141399
TU_BUS_000330,S5160,S5162,Le Grès,Mairie de Baillargues,43.66264654,4.00843563,43.661511125,4.01354778
TU_BUS_000331,S5160,S5164,Le Grès,Paul Cézanne,43.66264654,4.00843563,43.659541465,4.006326215
TU_BUS_000332,S5164,S5165,Paul Cézanne,Treille,43.659541465,4.006326215,43.65666349,4.00231055
TU_BUS_000333,S5154,S5165,Biste,Treille,43.65581231,4.000075455,43.65666349,4.00231055
TU_BUS_000334,S5154,S5852,Biste,Gare de Baillargues,43.65581231,4.000075455,43.6533705925,4.0078667825
TU_BUS_000335,S5792,S5852,Paul Gauguin,Gare de Baillargues,43.65537324,3.97551485,43.6533705925,4.0078667825
TU_BUS_000336,S5786,S5792,Gustave Courbet,Paul Gauguin,43.658187345,3.97609716,43.65537324,3.97551485
TU_BUS_000337,S5786,S5791,Gustave Courbet,Parc Vendargues,43.658187345,3.97609716,43.660710265,3.97542663
TU_BUS_000338,S5780,S5791,Albert Dubout,Parc Vendargues,43.662043895,3.974926235,43.660710265,3.97542663
TU_BUS_000339,S5780,S5785,Albert Dubout,Frédéric Mistral,43.662043895,3.974926235,43.663918675,3.974311315
TU_BUS_000340,S5783,S5785,Devèzes,Frédéric Mistral,43.66284089,3.97037329,43.663918675,3.974311315
TU_BUS_000341,S5783,S5789,Devèzes,Monnaie,43.66284089,3.97037329,43.66119263,3.969979375
TU_BUS_000342,S5789,S5793,Monnaie,Balances,43.66119263,3.969979375,43.657751075,3.96837639
TU_BUS_000343,S5781,S5793,Arènes Roger Itier,Balances,43.655264995,3.967500475,43.657751075,3.96837639
TU_BUS_000344,S5781,S5790,Arènes Roger Itier,Parc Gouneaud,43.655264995,3.967500475,43.65418065,3.963983985
TU_BUS_000345,S5790,S5891,Parc Gouneaud,Jean-Marcel Castet,43.65418065,3.963983985,43.6530550066667,3.96151477333333
TU_BUS_000346,S5161,S5162,Le Levant,Mairie de Baillargues,43.66169756,4.01804855,43.661511125,4.01354778
TU_BUS_000347,S5156,S5161,Fenouillet,Le Levant,43.664311795,4.02193374,43.66169756,4.01804855
TU_BUS_000348,S5177,S5199,Charles de Gaulle,Place de la Liberté,43.62817536375,3.8974032625,43.632612645,3.895944925
TU_BUS_000349,S5183,S5199,Closerie des Guilhems,Place de la Liberté,43.63460011,3.894959495,43.632612645,3.895944925
TU_BUS_000350,S5183,S5188,Closerie des Guilhems,Jean Jaurès,43.63460011,3.894959495,43.639988915,3.894066775
TU_BUS_000351,S5175,S5188,Caylus,Jean Jaurès,43.64504846,3.898246775,43.639988915,3.894066775
TU_BUS_000352,S5175,S5187,Caylus,Idate,43.64504846,3.898246775,43.652303995,3.895083745
TU_BUS_000353,S5187,S5213,Idate,Château,43.652303995,3.895083745,43.65530122,3.89223107
TU_BUS_000354,S5212,S5860,Cap Alpha,Pinède,43.65984784,3.90050707333333,43.66398524,3.90513642
TU_BUS_000355,S5858,S5860,Écureuils,Pinède,43.663861745,3.90838378,43.66398524,3.90513642
TU_BUS_000356,S5286,S5858,Collège Pierre Mendès France,Écureuils,43.667421055,3.91276689,43.663861745,3.90838378
TU_BUS_000357,S5216,S5855,La Croisée,Chêne Liège,43.66005696,3.89826736,43.659850305,3.896076115
TU_BUS_000358,S5343,S5586,La Capoulière,Paul Fajon,43.58694569,3.809972605,43.596375575,3.83711203
TU_BUS_000359,S5343,S5344,La Capoulière,La Croix,43.58694569,3.809972605,43.585236225,3.80777058
TU_BUS_000360,S5344,S5951,La Croix,MARRONNIERS,43.585236225,3.80777058,43.58471816,3.80222948
TU_BUS_000361,S5346,S5951,Mas de Lépôt,MARRONNIERS,43.586453955,3.79818061,43.58471816,3.80222948
TU_BUS_000362,S5346,S5703,Mas de Lépôt,Saint-Martin de Vignogoul,43.586453955,3.79818061,43.58565771,3.790227115
TU_BUS_000363,S5703,S5847,Saint-Martin de Vignogoul,Saint-Estève,43.58565771,3.790227115,43.58592943,3.7719006
TU_BUS_000364,S5695,S5847,Distillerie,Saint-Estève,43.58594126,3.76693574,43.58592943,3.7719006
TU_BUS_000365,S5695,S5700,Distillerie,Lotissement Les Violettes,43.58594126,3.76693574,43.587122635,3.76596978
TU_BUS_000366,S5699,S5700,Le Temple,Lotissement Les Violettes,43.58532712,3.76272816,43.587122635,3.76596978
TU_BUS_000367,S5699,S5702,Le Temple,Médiathèque La Gare,43.58532712,3.76272816,43.58560545,3.76070701
TU_BUS_000368,S5694,S5702,Coopérative Oléicole,Médiathèque La Gare,43.58445466,3.757302375,43.58560545,3.76070701
TU_BUS_000369,S5694,S5696,Coopérative Oléicole,Gaston Defferre,43.58445466,3.757302375,43.583917015,3.75305982
TU_BUS_000370,S5696,S5697,Gaston Defferre,Jean Moulin,43.583917015,3.75305982,43.58231498,3.75217925
TU_BUS_000371,S5697,S5701,Jean Moulin,Maison de Retraite,43.58231498,3.75217925,43.58109809,3.751060955
TU_BUS_000372,S5698,S5701,La Bornière,Maison de Retraite,43.5793925933333,3.75419244666667,43.58109809,3.751060955
TU_BUS_000373,S5698,S5849,La Bornière,Jardins d'Hélios,43.5793925933333,3.75419244666667,43.5667421,3.72962188
TU_BUS_000374,S5230,S5849,Beaulieu,Jardins d'Hélios,43.56031264,3.72735771,43.5667421,3.72962188
TU_BUS_000375,S5230,S5236,Beaulieu,Stade,43.56031264,3.72735771,43.55545634,3.722283315
TU_BUS_000376,S5234,S5236,Les Grenaches,Stade,43.552929005,3.71888507,43.55545634,3.722283315
TU_BUS_000377,S5232,S5234,Jean Jaurès,Les Grenaches,43.55851576,3.71182636,43.552929005,3.71888507
TU_BUS_000378,S5231,S5232,Chanterelles,Jean Jaurès,43.55982928,3.70819918,43.55851576,3.71182636
TU_BUS_000379,S5231,S5233,Chanterelles,Jean Moulin,43.55982928,3.70819918,43.55490934,3.71267896
TU_BUS_000380,S5229,S5233,Tournesol,Jean Moulin,43.55279629,3.709902905,43.55490934,3.71267896
TU_BUS_000381,S5226,S5229,Mairie,Tournesol,43.549658275,3.707139575,43.55279629,3.709902905
TU_BUS_000382,S5226,S5228,Mairie,Tambourin,43.549658275,3.707139575,43.54854404,3.70498107
TU_BUS_000383,S5224,S5228,La Vierge,Tambourin,43.546124105,3.70300154,43.54854404,3.70498107
TU_BUS_000384,S5223,S5224,Hauts des Clavoux,La Vierge,43.54472306,3.70112681,43.546124105,3.70300154
TU_BUS_000385,S5223,S5225,Hauts des Clavoux,Les Clavoux,43.54472306,3.70112681,43.543970755,3.70233223
TU_BUS_000386,S5229,S5232,Tournesol,Jean Jaurès,43.55279629,3.709902905,43.55851576,3.71182636
TU_BUS_000387,S5233,S5234,Jean Moulin,Les Grenaches,43.55490934,3.71267896,43.552929005,3.71888507
TU_BUS_000388,S5694,S5704,Coopérative Oléicole,Square Tribes,43.58445466,3.757302375,43.58380897,3.75992029
TU_BUS_000389,S5699,S5704,Le Temple,Square Tribes,43.58532712,3.76272816,43.58380897,3.75992029
TU_BUS_000390,S5343,S5754,La Capoulière,Le Terral,43.58694569,3.809972605,43.5928008,3.82256593
TU_BUS_000391,S5586,S5754,Paul Fajon,Le Terral,43.596375575,3.83711203,43.5928008,3.82256593
TU_BUS_000392,S5336,S5633,Manse,Sabines,43.570988415,3.877776985,43.583822352,3.860158464
TU_BUS_000393,S5333,S5336,Entreprises,Manse,43.56416184,3.879292745,43.570988415,3.877776985
TU_BUS_000394,S5333,S5339,Entreprises,Montpellieret,43.56416184,3.879292745,43.560380995,3.877460145
TU_BUS_000395,S5332,S5339,Crédit Agricole,Montpellieret,43.55844585,3.87636968,43.560380995,3.877460145
TU_BUS_000396,S5333,S5338,Entreprises,Montouzères,43.56416184,3.879292745,43.5684388,3.88414941
TU_BUS_000397,S5338,S5341,Montouzères,Saint-Pierre,43.5684388,3.88414941,43.572507845,3.89376129
TU_BUS_000398,S5330,S5341,Cimetière Saint-Laurent,Saint-Pierre,43.56852681,3.899902415,43.572507845,3.89376129
TU_BUS_000399,S5330,S5337,Cimetière Saint-Laurent,Méjean,43.56852681,3.899902415,43.56736022,3.90038357
TU_BUS_000400,S5335,S5337,Mairie,Méjean,43.56862144,3.90423211,43.56736022,3.90038357
TU_BUS_000401,S5327,S5335,Lattes Centre,Mairie,43.5707753533333,3.90519991333333,43.56862144,3.90423211
TU_BUS_000402,S5330,S5335,Cimetière Saint-Laurent,Mairie,43.56852681,3.899902415,43.56862144,3.90423211
TU_BUS_000403,S5323,S5861,Terres du Sud,Courpouyran,43.619102145,3.791282425,43.620807315,3.7878116
TU_BUS_000404,S5312,S5323,La Bergerie,Terres du Sud,43.61675293,3.797174145,43.619102145,3.791282425
TU_BUS_000405,S5312,S5314,La Bergerie,Le Labournas,43.61675293,3.797174145,43.614415155,3.800869505
TU_BUS_000406,S5310,S5314,Hôtel de Ville,Le Labournas,43.61382793,3.8067191,43.614415155,3.800869505
TU_BUS_000407,S5304,S5310,Allée de l'Europe,Hôtel de Ville,43.613912925,3.810383605,43.61382793,3.8067191
TU_BUS_000408,S5304,S5322,Allée de l'Europe,Route de Saint-Georges,43.613912925,3.810383605,43.61281323,3.80895096
TU_BUS_000409,S5322,S5324,Route de Saint-Georges,Valat de la Fosse,43.61281323,3.80895096,43.610495205,3.80555079
TU_BUS_000410,S5318,S5324,Marjories,Valat de la Fosse,43.60968819,3.807385805,43.610495205,3.80555079
TU_BUS_000411,S5317,S5318,Luminaire,Marjories,43.607831435,3.811049415,43.60968819,3.807385805
TU_BUS_000412,S5306,S5317,Églantiers,Luminaire,43.607979435,3.81305122,43.607831435,3.811049415
TU_BUS_000413,S5306,S5321,Églantiers,Rivière,43.607979435,3.81305122,43.60958914,3.81564141
TU_BUS_000414,S5313,S5321,La Plaine,Rivière,43.611828725,3.814567335,43.60958914,3.81564141
TU_BUS_000415,S5313,S5320,La Plaine,Récantou,43.611828725,3.814567335,43.61314562,3.81588815
TU_BUS_000416,S5311,S5320,Juvignac,Récantou,43.6175292,3.80998197,43.61314562,3.81588815
TU_BUS_000417,S5311,S5864,Juvignac,Saturne,43.6175292,3.80998197,43.6195814,3.804058305
TU_BUS_000418,S5316,S5864,Les Thermes,Saturne,43.621932715,3.800035155,43.6195814,3.804058305
TU_BUS_000419,S5316,S5325,Les Thermes,Village,43.621932715,3.800035155,43.6245845,3.799713285
TU_BUS_000420,S5305,S5325,Calade,Village,43.62757777,3.79940015,43.6245845,3.799713285
TU_BUS_000421,S5305,S5319,Calade,Mélanie,43.62757777,3.79940015,43.630303415,3.79826947
TU_BUS_000422,S5309,S5319,Hauts de Fontcaude,Mélanie,43.632079345,3.799564965,43.630303415,3.79826947
TU_BUS_000423,S5307,S5309,Fontcaude,Hauts de Fontcaude,43.6322673,3.801952285,43.632079345,3.799564965
TU_BUS_000424,S5307,S5315,Fontcaude,Le Martinet,43.6322673,3.801952285,43.634194,3.80372833
TU_BUS_000425,S5754,S5849,Le Terral,Jardins d'Hélios,43.5928008,3.82256593,43.5667421,3.72962188
TU_BUS_000426,S5586,S5849,Paul Fajon,Jardins d'Hélios,43.596375575,3.83711203,43.5667421,3.72962188
TU_BUS_000427,S5274,S5276,Le Pradas,Les Terrasses,43.6606809,3.79217493,43.654340495,3.79036034
TU_BUS_000428,S5276,S5278,Les Terrasses,Source,43.654340495,3.79036034,43.650549955,3.79113046
TU_BUS_000429,S5278,S5814,Source,Pierre Doumergue,43.650549955,3.79113046,43.64956825,3.793940555
TU_BUS_000430,S5269,S5814,Grabels Centre,Pierre Doumergue,43.64758783,3.799139105,43.64956825,3.793940555
TU_BUS_000431,S5268,S5269,Cave Coopérative,Grabels Centre,43.64690398,3.801845145,43.64758783,3.799139105
TU_BUS_000432,S5268,S5270,Cave Coopérative,Garriguettes,43.64690398,3.801845145,43.64684998,3.805830065
TU_BUS_000433,S5270,S5275,Garriguettes,Le Rio,43.64684998,3.805830065,43.64654614,3.808013465
TU_BUS_000434,S5272,S5275,Genêts,Le Rio,43.645940895,3.811532255,43.64654614,3.808013465
TU_BUS_000435,S5267,S5272,Avenue de Rome,Genêts,43.643076895,3.824072515,43.645940895,3.811532255
TU_BUS_000436,S5267,S5453,Avenue de Rome,Euromédecine,43.643076895,3.824072515,43.63905096,3.828146522
TU_BUS_000437,S5453,S5544,Euromédecine,Malbosc - Domaine d'Ô,43.63905096,3.828146522,43.6347173625,3.8332986175
TU_BUS_000438,S5468,S5544,Galéra,Malbosc - Domaine d'Ô,43.636701705,3.83655646,43.6347173625,3.8332986175
TU_BUS_000439,S5434,S5468,Croix de Lavit,Galéra,43.639240725,3.83919165,43.636701705,3.83655646
TU_BUS_000440,S5381,S5434,Apothicaires,Croix de Lavit,43.641653505,3.835046355,43.639240725,3.83919165
TU_BUS_000441,S5381,S5395,Apothicaires,Caducée,43.641653505,3.835046355,43.643445805,3.833180815
TU_BUS_000442,S5271,S5395,Gaston Planté,Caducée,43.646174155,3.83090637,43.643445805,3.833180815
TU_BUS_000443,S5271,S5277,Gaston Planté,L'Île Bleue,43.646174155,3.83090637,43.648916755,3.8318324
TU_BUS_000444,S5273,S5277,La Valsière,L'Île Bleue,43.65001137,3.83231296,43.648916755,3.8318324
TU_BUS_000445,S5328,S5470,Céreirède,Garcia Lorca,43.58134755,3.89822509,43.59120512625,3.89046299125
TU_BUS_000446,S5328,S5329,Céreirède,Chemin de Lattes,43.58134755,3.89822509,43.572707495,3.89643736
TU_BUS_000447,S5329,S5340,Chemin de Lattes,Oasis Palavasienne,43.572707495,3.89643736,43.55525603,3.89290829
TU_BUS_000448,S5340,S5797,Oasis Palavasienne,Arnel,43.55525603,3.89290829,43.537831255,3.869259615
TU_BUS_000449,S5797,S5800,Arnel,Boulevard du Chapitre,43.537831255,3.869259615,43.53304643,3.86468347
TU_BUS_000450,S5800,S5809,Boulevard du Chapitre,Pilou,43.53304643,3.86468347,43.52982521,3.865857595
TU_BUS_000451,S5806,S5809,Myosotis,Pilou,43.528270665,3.86486475,43.52982521,3.865857595
TU_BUS_000452,S5806,S5807,Myosotis,Oliviers de Bohême,43.528270665,3.86486475,43.52709089,3.862158575
TU_BUS_000453,S5807,S5812,Oliviers de Bohême,Tadornes,43.52709089,3.862158575,43.526167885,3.8613186
TU_BUS_000454,S5803,S5812,Les Moures,Tadornes,43.524456445,3.859018475,43.526167885,3.8613186
TU_BUS_000455,S5803,S5808,Les Moures,Pèlerine,43.524456445,3.859018475,43.526440955,3.855013025
TU_BUS_000456,S5808,S5892,Pèlerine,Domenoves,43.526440955,3.855013025,43.530118615,3.853331575
TU_BUS_000457,S5813,S5892,Vignes Vierges,Domenoves,43.532000715,3.8527699,43.530118615,3.853331575
TU_BUS_000458,S5813,S5893,Vignes Vierges,Figuière,43.532000715,3.8527699,43.53477861,3.855951
TU_BUS_000459,S5798,S5893,Avenue de la Gare,Figuière,43.53697439,3.857374685,43.53477861,3.855951
TU_BUS_000460,S5798,S5897,Avenue de la Gare,Pont de Villeneuve,43.53697439,3.857374685,43.553602895,3.84561167
TU_BUS_000461,S5752,S5897,La Lauze,Pont de Villeneuve,43.561834705,3.8467437,43.553602895,3.84561167
TU_BUS_000462,S5752,S5954,La Lauze,Saint-Exupéry,43.561834705,3.8467437,43.56263216,3.84144923
TU_BUS_000463,S5761,S5954,Saint-Jean le Sec,Saint-Exupéry,43.5708042575,3.8378316925,43.56263216,3.84144923
TU_BUS_000464,S5798,S5805,Avenue de la Gare,Maison d'Arrêt,43.53697439,3.857374685,43.546286975,3.82868569
TU_BUS_000465,S5805,S5941,Maison d'Arrêt,Charles Martel,43.546286975,3.82868569,43.55057786,3.835286165
TU_BUS_000466,S5752,S5941,La Lauze,Charles Martel,43.561834705,3.8467437,43.55057786,3.835286165
TU_BUS_000467,S5798,S5802,Avenue de la Gare,Font Majour,43.53697439,3.857374685,43.53506205,3.85944286
TU_BUS_000468,S5799,S5802,Boulevard des Écoles,Font Majour,43.53330719,3.86149656,43.53506205,3.85944286
TU_BUS_000469,S5799,S5811,Boulevard des Écoles,Stade,43.53330719,3.86149656,43.53323033,3.85546508
TU_BUS_000470,S5811,S5813,Stade,Vignes Vierges,43.53323033,3.85546508,43.532000715,3.8527699
TU_BUS_000471,S5334,S5797,Gramenet,Arnel,43.54888214,3.89450214,43.537831255,3.869259615
TU_BUS_000472,S5334,S5340,Gramenet,Oasis Palavasienne,43.54888214,3.89450214,43.55525603,3.89290829
TU_BUS_000473,S5887,S5888,La Fermaude,Oliviers,43.59028608,3.83802194,43.58916528,3.829044665
TU_BUS_000474,S5755,S5888,Louise Michel,Oliviers,43.58101331,3.83382133,43.58916528,3.829044665
TU_BUS_000475,S5746,S5755,Château du Terral,Louise Michel,43.58314527,3.83046414,43.58101331,3.83382133
TU_BUS_000476,S5746,S5756,Château du Terral,Marquerose,43.58314527,3.83046414,43.583696865,3.82664503
TU_BUS_000477,S5743,S5756,Allée du Bois,Marquerose,43.582380835,3.824619805,43.583696865,3.82664503
TU_BUS_000478,S5743,S5747,Allée du Bois,Collège Louis Germain,43.582380835,3.824619805,43.5795806,3.823316555
TU_BUS_000479,S5747,S5886,Collège Louis Germain,Jean Vilar,43.5795806,3.823316555,43.577291445,3.828963375
TU_BUS_000480,S5886,S5905,Jean Vilar,Saint-Jean de Védas Centre - Ortet,43.577291445,3.828963375,43.57566707,3.830070865
TU_BUS_000481,S5744,S5905,Cave Coopérative,Saint-Jean de Védas Centre - Ortet,43.573444335,3.827311255,43.57566707,3.830070865
TU_BUS_000482,S5744,S5750,Cave Coopérative,Jasses,43.573444335,3.827311255,43.570822125,3.82809595
TU_BUS_000483,S5750,S5761,Jasses,Saint-Jean le Sec,43.570822125,3.82809595,43.5708042575,3.8378316925
TU_BUS_000484,S5750,S5757,Jasses,Mas de Magret,43.570822125,3.82809595,43.56732943,3.82812227
TU_BUS_000485,S5757,S5765,Mas de Magret,Val des Garrigues,43.56732943,3.82812227,43.5666827,3.82678261
TU_BUS_000486,S5761,S5765,Saint-Jean le Sec,Val des Garrigues,43.5708042575,3.8378316925,43.5666827,3.82678261
TU_BUS_000487,S5746,S5888,Château du Terral,Oliviers,43.58314527,3.83046414,43.58916528,3.829044665
TU_BUS_000488,S5757,S5761,Mas de Magret,Saint-Jean le Sec,43.56732943,3.82812227,43.5708042575,3.8378316925
TU_BUS_000489,S5750,S5765,Jasses,Val des Garrigues,43.570822125,3.82809595,43.5666827,3.82678261
TU_BUS_000490,S5888,S5936,Oliviers,Coustaude,43.58916528,3.829044665,43.59175414,3.83522824
TU_BUS_000491,S5887,S5936,La Fermaude,Coustaude,43.59028608,3.83802194,43.59175414,3.83522824
TU_BUS_000492,S5177,S5182,Charles de Gaulle,Clinique du Parc,43.62817536375,3.8974032625,43.63541981,3.8910953
TU_BUS_000493,S5182,S5199,Clinique du Parc,Place de la Liberté,43.63541981,3.8910953,43.632612645,3.895944925
TU_BUS_000494,S5230,S5698,Beaulieu,La Bornière,43.56031264,3.72735771,43.5793925933333,3.75419244666667
TU_BUS_000495,S5700,S5904,Lotissement Les Violettes,Jean Ferrat,43.587122635,3.76596978,43.58892288,3.76884689
TU_BUS_000496,S5741,S5904,Stade,Jean Ferrat,43.6072961966667,3.78489724333333,43.58892288,3.76884689
TU_BUS_000497,S5738,S5741,La Regnague,Stade,43.60891347,3.796553085,43.6072961966667,3.78489724333333
TU_BUS_000498,S5738,S5957,La Regnague,Amandiers,43.60891347,3.796553085,43.60987583,3.801173795
TU_BUS_000499,S5322,S5957,Route de Saint-Georges,Amandiers,43.61281323,3.80895096,43.60987583,3.801173795
TU_BUS_000500,S5322,S5963,Route de Saint-Georges,Alouettes,43.61281323,3.80895096,43.613963025,3.811325225
TU_BUS_000501,S5563,S5963,Mosson,Alouettes,43.616387998,3.819643266,43.613963025,3.811325225
TU_BUS_000502,S5733,S5742,Avenue Justin Bec,Zone Artisanale,43.62561758,3.76885135,43.62929953,3.76913552
TU_BUS_000503,S5733,S5739,Avenue Justin Bec,Le Réservoir,43.62561758,3.76885135,43.614794345,3.77629441
TU_BUS_000504,S5736,S5739,Dame d'Orcas,Le Réservoir,43.615698175,3.779639325,43.614794345,3.77629441
TU_BUS_000505,S5736,S5835,Dame d'Orcas,Les Alicantes,43.615698175,3.779639325,43.612991265,3.786109785
TU_BUS_000506,S5741,S5835,Stade,Les Alicantes,43.6072961966667,3.78489724333333,43.612991265,3.786109785
TU_BUS_000507,S5741,S5836,Stade,Les Jardins,43.6072961966667,3.78489724333333,43.60970849,3.78287171
TU_BUS_000508,S5740,S5836,Le Saint-Georges,Les Jardins,43.61061524,3.78430506,43.60970849,3.78287171
TU_BUS_000509,S5737,S5740,Gare,Le Saint-Georges,43.60905568,3.78865745,43.61061524,3.78430506
TU_BUS_000510,S5737,S5738,Gare,La Regnague,43.60905568,3.78865745,43.60891347,3.796553085
TU_BUS_000511,S5737,S5835,Gare,Les Alicantes,43.60905568,3.78865745,43.612991265,3.786109785
TU_BUS_000512,S5698,S5767,La Bornière,Aires,43.5793925933333,3.75419244666667,43.572453605,3.77299024
TU_BUS_000513,S5767,S5768,Aires,Barils,43.572453605,3.77299024,43.5717551,3.773467225
TU_BUS_000514,S5768,S5773,Barils,Mairie,43.5717551,3.773467225,43.57084846,3.77371025
TU_BUS_000515,S5770,S5773,La Vialette,Mairie,43.568806115,3.77418433,43.57084846,3.77371025
TU_BUS_000516,S5265,S5770,Paix,La Vialette,43.555299935,3.778912335,43.568806115,3.77418433
TU_BUS_000517,S5258,S5265,École La Gardiole,Paix,43.557252205,3.78249046,43.555299935,3.778912335
TU_BUS_000518,S5258,S5266,École La Gardiole,Rouget de Lisle,43.557252205,3.78249046,43.55687504,3.78447711
TU_BUS_000519,S5257,S5266,Albinoni,Rouget de Lisle,43.557895045,3.787178985,43.55687504,3.78447711
TU_BUS_000520,S5257,S5856,Albinoni,Collège Ray Charles,43.557895045,3.787178985,43.55970126,3.790234695
TU_BUS_000521,S5856,S5955,Collège Ray Charles,Stedo,43.55970126,3.790234695,43.560230845,3.79529764
TU_BUS_000522,S5762,S5955,Sigaliès,Stedo,43.5710967,3.813001145,43.560230845,3.79529764
TU_BUS_000523,S5759,S5762,Saint-Hubéry,Sigaliès,43.57382225,3.81976667,43.5710967,3.813001145
TU_BUS_000524,S5758,S5759,Roudères,Saint-Hubéry,43.57514052,3.82555648,43.57382225,3.81976667
TU_BUS_000525,S5758,S5905,Roudères,Saint-Jean de Védas Centre - Ortet,43.57514052,3.82555648,43.57566707,3.830070865
TU_BUS_000526,S5760,S5905,Saint-Jean de Védas Centre,Saint-Jean de Védas Centre - Ortet,43.5748751566667,3.83045819333333,43.57566707,3.830070865
TU_BUS_000527,S5758,S5760,Roudères,Saint-Jean de Védas Centre,43.57514052,3.82555648,43.5748751566667,3.83045819333333
TU_BUS_000528,S5261,S5856,Les Cousses,Collège Ray Charles,43.5579814,3.7891156,43.55970126,3.790234695
TU_BUS_000529,S5257,S5261,Albinoni,Les Cousses,43.557895045,3.787178985,43.5579814,3.7891156
TU_BUS_000530,S5249,S5255,Maumarin,Sienne,43.661486145,3.943753385,43.66220298,3.940882005
TU_BUS_000531,S5250,S5255,Monteroni d'Arbia,Sienne,43.660068145,3.936302165,43.66220298,3.940882005
TU_BUS_000532,S5250,S5817,Monteroni d'Arbia,Sauvagine,43.660068145,3.936302165,43.66233833,3.93659489
TU_BUS_000533,S5253,S5817,Rocailles,Sauvagine,43.656956445,3.93576919,43.66233833,3.93659489
TU_BUS_000534,S5253,S5815,Rocailles,Combe Chaude,43.656956445,3.93576919,43.65394782,3.935257735
TU_BUS_000535,S5815,S5953,Combe Chaude,Rolland Gamet,43.65394782,3.935257735,43.64905716,3.93282415
TU_BUS_000536,S5818,S5953,Via Domitia,Rolland Gamet,43.6465206325,3.9301688725,43.64905716,3.93282415
TU_BUS_000537,S5238,S5246,Arbousiers,Jean Jaurès,43.65365127,3.944659535,43.656960405,3.943093515
TU_BUS_000538,S5238,S5240,Arbousiers,Baléares,43.65365127,3.944659535,43.65132732,3.9434488
TU_BUS_000539,S5240,S5243,Baléares,Cimetière,43.65132732,3.9434488,43.65115707,3.940683005
TU_BUS_000540,S5243,S5256,Cimetière,Substantion,43.65115707,3.940683005,43.649712835,3.94016576
TU_BUS_000541,S5244,S5256,Fernand Rouché,Substantion,43.647424805,3.94138286,43.649712835,3.94016576
TU_BUS_000542,S5242,S5244,Chênes,Fernand Rouché,43.645199405,3.94171027,43.647424805,3.94138286
TU_BUS_000543,S5241,S5242,Capri,Chênes,43.64590966,3.93836906,43.645199405,3.94171027
TU_BUS_000544,S5239,S5241,Arènes,Capri,43.6429169,3.93678719,43.64590966,3.93836906
TU_BUS_000545,S5239,S5816,Arènes,Méditerranée,43.6429169,3.93678719,43.64524279,3.93482827
TU_BUS_000546,S5816,S5953,Méditerranée,Rolland Gamet,43.64524279,3.93482827,43.64905716,3.93282415
TU_BUS_000547,S5386,S5633,Bagatelle,Sabines,43.59509064,3.84418411,43.583822352,3.860158464
TU_BUS_000548,S5386,S5931,Bagatelle,Cheng-Du,43.59509064,3.84418411,43.59306424,3.84380908
TU_BUS_000549,S5931,S5932,Cheng-Du,XV de France,43.59306424,3.84380908,43.59152921,3.84494355
TU_BUS_000550,S5679,S5932,Yves du Manoir,XV de France,43.59144234,3.8485898,43.59152921,3.84494355
TU_BUS_000551,S5633,S5679,Sabines,Yves du Manoir,43.583822352,3.860158464,43.59144234,3.8485898
TU_BUS_000552,S5260,S5264,Le Hameau,Lou Paillas,43.54689282,3.77402894,43.54557703,3.77495978
TU_BUS_000553,S5260,S5262,Le Hameau,Les Écoles,43.54689282,3.77402894,43.54916869,3.77728084
TU_BUS_000554,S5259,S5262,Jeu de Ballon,Les Écoles,43.55137054,3.7769779,43.54916869,3.77728084
TU_BUS_000555,S5259,S5265,Jeu de Ballon,Paix,43.55137054,3.7769779,43.555299935,3.778912335
TU_BUS_000556,S5262,S5264,Les Écoles,Lou Paillas,43.54916869,3.77728084,43.54557703,3.77495978
TU_BUS_000557,S5782,S5796,Châtaigniers,Marbrerie,43.649267085,3.95652065,43.65386802,3.95575354
TU_BUS_000558,S5795,S5796,Bigos,Marbrerie,43.65524448,3.9499668,43.65386802,3.95575354
TU_BUS_000559,S5796,S5891,Marbrerie,Jean-Marcel Castet,43.65386802,3.95575354,43.6530550066667,3.96151477333333
TU_BUS_000560,S5790,S5796,Parc Gouneaud,Marbrerie,43.65418065,3.963983985,43.65386802,3.95575354
TU_BUS_000561,S5196,S5962,Notre-Dame de Sablassou,Verchant,43.6341134433333,3.92248383166667,43.623095675,3.918331315
TU_BUS_000562,S5452,S5962,Eurêka,Verchant,43.61945437,3.91435734,43.623095675,3.918331315
TU_BUS_000563,S5452,S5958,Eurêka,Alfred Nobel,43.61945437,3.91435734,43.61600677,3.91003657
TU_BUS_000564,S5600,S5958,Pinville,Alfred Nobel,43.61397539,3.905371665,43.61600677,3.91003657
TU_BUS_000565,S5587,S5600,Paul Painlevé,Pinville,43.610214075,3.899097745,43.61397539,3.905371665
TU_BUS_000566,S5587,S5960,Paul Painlevé,Pont Juvénal,43.610214075,3.899097745,43.606236945,3.89810751
TU_BUS_000567,S5355,S5357,Cirad de Baillarguet,Font de Salomé,43.68428167,3.87654496,43.67835467,3.87323873
TU_BUS_000568,S5356,S5357,Distillerie,Font de Salomé,43.675120895,3.86733635,43.67835467,3.87323873
TU_BUS_000569,S5356,S5870,Distillerie,Olympe,43.675120895,3.86733635,43.67674098,3.855067645
TU_BUS_000570,S5870,S5952,Olympe,Dévézou,43.67674098,3.855067645,43.67399852,3.85798586
TU_BUS_000571,S5363,S5952,Picadous,Dévézou,43.66962815,3.86190683,43.67399852,3.85798586
TU_BUS_000572,S5360,S5363,La Grand Font,Picadous,43.66885951,3.860629235,43.66962815,3.86190683
TU_BUS_000573,S5354,S5360,Chemin Neuf,La Grand Font,43.66721153,3.85859134,43.66885951,3.860629235
TU_BUS_000574,S5354,S5358,Chemin Neuf,Font du Noyer,43.66721153,3.85859134,43.66592631,3.85247646
TU_BUS_000575,S5358,S5365,Font du Noyer,Quatre Chemins,43.66592631,3.85247646,43.66505361,3.846087955
TU_BUS_000576,S5359,S5365,Fontaine des Chênes,Quatre Chemins,43.66201615,3.84729548,43.66505361,3.846087955
TU_BUS_000577,S5359,S5361,Fontaine des Chênes,La Lironde,43.66201615,3.84729548,43.660069515,3.84892802
TU_BUS_000578,S5353,S5361,Chemin du Cambas,La Lironde,43.658690835,3.850445505,43.660069515,3.84892802
TU_BUS_000579,S5353,S5362,Chemin du Cambas,Mas de Gué,43.658690835,3.850445505,43.65737859,3.851710835
TU_BUS_000580,S5351,S5362,Aqueduc,Mas de Gué,43.654214135,3.856201835,43.65737859,3.851710835
TU_BUS_000581,S5351,S5364,Aqueduc,Picheyrou,43.654214135,3.856201835,43.65311966,3.860196635
TU_BUS_000582,S5364,S5366,Picheyrou,Rapatel,43.65311966,3.860196635,43.651550195,3.86439525
TU_BUS_000583,S5366,S5673,Rapatel,Vincent Auriol,43.651550195,3.86439525,43.64776173,3.8640215
TU_BUS_000584,S5611,S5943,Plan des 4 Seigneurs,Pic Saint-Loup,43.640827535,3.8578509,43.63915038,3.85340573
TU_BUS_000585,S5571,S5943,Occitanie,Pic Saint-Loup,43.6346144,3.84841683166667,43.63915038,3.85340573
TU_BUS_000586,S5356,S5363,Distillerie,Picadous,43.675120895,3.86733635,43.66962815,3.86190683
TU_BUS_000587,S5374,S5943,Ambroise Paré,Pic Saint-Loup,43.63804826,3.84768255,43.63915038,3.85340573
TU_BUS_000588,S5366,S5919,Rapatel,Vincent Auriol,43.651550195,3.86439525,43.64837411,3.86458262
TU_BUS_000589,S5363,S5870,Picadous,Olympe,43.66962815,3.86190683,43.67674098,3.855067645
TU_BUS_000590,S5870,S5967,Olympe,Dévézou,43.67674098,3.855067645,43.67402582,3.85796181
TU_BUS_000591,S5356,S5967,Distillerie,Dévézou,43.675120895,3.86733635,43.67402582,3.85796181
TU_BUS_000592,S5605,S5844,Place de France,Gare Montpellier Sud de France,43.603759528,3.915564274,43.59603179,3.92172579
TU_BUS_000593,S5708,S5711,Frayssinet,Mandarine,43.69680567,3.862838015,43.694252755,3.862497125
TU_BUS_000594,S5708,S5710,Frayssinet,Mairie,43.69680567,3.862838015,43.69727398,3.86437463
TU_BUS_000595,S5707,S5710,Ducque,Mairie,43.697099585,3.869084705,43.69727398,3.86437463
TU_BUS_000596,S5706,S5707,Coste Rousse,Ducque,43.694704655,3.870922295,43.697099585,3.869084705
TU_BUS_000597,S5706,S5878,Coste Rousse,Gaspard Monge,43.694704655,3.870922295,43.69382819,3.872503255
TU_BUS_000598,S5878,S5879,Gaspard Monge,Les Baronnes,43.69382819,3.872503255,43.691040365,3.87129455
TU_BUS_000599,S5879,S5881,Les Baronnes,Olympe de Gouges,43.691040365,3.87129455,43.68959207,3.869768875
TU_BUS_000600,S5877,S5881,Cigale,Olympe de Gouges,43.688137715,3.867716575,43.68959207,3.869768875
TU_BUS_000601,S5877,S5880,Cigale,Nouau,43.688137715,3.867716575,43.686592285,3.865426565
TU_BUS_000602,S5714,S5880,Pont Vert,Nouau,43.686394115,3.86386029,43.686592285,3.865426565
TU_BUS_000603,S5713,S5714,Pendances,Pont Vert,43.68441524,3.863615305,43.686394115,3.86386029
TU_BUS_000604,S5352,S5713,Baillarguet,Pendances,43.67752903,3.86710367,43.68441524,3.863615305
TU_BUS_000605,S5352,S5356,Baillarguet,Distillerie,43.67752903,3.86710367,43.675120895,3.86733635
TU_BUS_000606,S5363,S5916,Picadous,Roularel,43.66962815,3.86190683,43.662264495,3.862923615
TU_BUS_000607,S5909,S5916,Baumes,Roularel,43.657431065,3.863654935,43.662264495,3.862923615
TU_BUS_000608,S5909,S5910,Baumes,Moulin Boudet,43.657431065,3.863654935,43.65458441,3.864705515
TU_BUS_000609,S5869,S5910,Mende Agropolis,Moulin Boudet,43.651857935,3.86583969,43.65458441,3.864705515
TU_BUS_000610,S5673,S5869,Vincent Auriol,Mende Agropolis,43.64776173,3.8640215,43.651857935,3.86583969
TU_BUS_000611,S5869,S5919,Mende Agropolis,Vincent Auriol,43.651857935,3.86583969,43.64837411,3.86458262
TU_BUS_000612,S5808,S5907,Pèlerine,Mas Crespy,43.526440955,3.855013025,43.529937455,3.849262085
TU_BUS_000613,S5893,S5907,Figuière,Mas Crespy,43.53477861,3.855951,43.529937455,3.849262085
TU_BUS_000614,S5798,S5894,Avenue de la Gare,Gare de Villeneuve-lès-Maguelone,43.53697439,3.857374685,43.543940625,3.8503554
TU_BUS_000615,S5811,S5907,Stade,Mas Crespy,43.53323033,3.85546508,43.529937455,3.849262085
TU_BUS_000616,S5385,S5905,Avenue de Toulouse,Saint-Jean de Védas Centre - Ortet,43.591585885,3.8579067,43.57566707,3.830070865
TU_BUS_000617,S5385,S5391,Avenue de Toulouse,Berthelot,43.591585885,3.8579067,43.60124442,3.86942068
TU_BUS_000618,S5391,S5629,Berthelot,Rondelet,43.60124442,3.86942068,43.6033504316667,3.875474865
TU_BUS_000619,S5391,S5905,Berthelot,Saint-Jean de Védas Centre - Ortet,43.60124442,3.86942068,43.57566707,3.830070865
TU_BUS_000620,S5970,S5971,Pablo Picasso,Port Marianne,43.597811105,3.90356721,43.60149429,3.89939429
TU_BUS_000621,S5326,S5970,Boirargues,Pablo Picasso,43.582516072,3.926062458,43.597811105,3.90356721
TU_BUS_000622,S5326,S5685,Boirargues,EcoPôle,43.582516072,3.926062458,43.5781151725,3.9350316725
TU_BUS_000623,S5685,S5687,EcoPôle,Parc Expo,43.5781151725,3.9350316725,43.57287936,3.94524544333333
TU_BUS_000624,S5687,S5972,Parc Expo,Pérols Etang de l'Or,43.57287936,3.94524544333333,43.557858845,3.96370221
TU_BUS_000625,S5331,S5685,Cougourlude,EcoPôle,43.5713968166667,3.91418072,43.5781151725,3.9350316725
TU_BUS_000626,S5327,S5331,Lattes Centre,Cougourlude,43.5707753533333,3.90519991333333,43.5713968166667,3.91418072
TU_BUS_000627,S5327,S5968,Lattes Centre,Cougourlude,43.5707753533333,3.90519991333333,43.57142435,3.9145524
TU_BUS_000628,S5685,S5968,EcoPôle,Cougourlude,43.5781151725,3.9350316725,43.57142435,3.9145524
